start=new Date('2022-10-23T00:00:00.000Z').valueOf();
sats=[{"ARG_OF_PERICENTER":"49.3804","LAUNCH_DATE":"2022-08-12","INCLINATION":"97.6571","EPHEMERIS_TYPE":"0","PERIOD":"95.916","ELEMENT_SET_NO":"999","TLE_LINE1":"1 53507U 22099AU  22296.00002315 -.00058017  00000-0 -45431-2 0  9996","SEMIMAJOR_AXIS":"6940.985","MEAN_MOTION_DDOT":"0.0000000000000","OBJECT_ID":"2022-099AU","MEAN_MOTION_DOT":"-0.00058017","MEAN_ELEMENT_THEORY":"SGP4","REF_FRAME":"TEME","NORAD_CAT_ID":"53507","FILE":"3629782","PERIAPSIS":"561.307","OBJECT_NAME":"STARLINK-4444","MEAN_ANOMALY":"332.6526","MEAN_MOTION":"15.01312509","APOAPSIS":"564.393","CENTER_NAME":"EARTH","TLE_LINE2":"2 53507  97.6571  55.4760 0002223  49.3804 332.6526 15.01312509 11131","BSTAR":"-0.00454310000000","ECCENTRICITY":"0.00022230","CLASSIFICATION_TYPE":"U","TIME_SYSTEM":"UTC","RA_OF_ASC_NODE":"55.4760","OBJECT_TYPE":"PAYLOAD","DECAY_DATE":null,"SITE":"AFWTR","GP_ID":"215903534","COUNTRY_CODE":"US","REV_AT_EPOCH":"1113","RCS_SIZE":"LARGE","EPOCH":"2022-10-23T00:00:02.000160"},{"EPHEMERIS_TYPE":"0","PERIOD":"95.917","ELEMENT_SET_NO":"999","TLE_LINE1":"1 53508U 22099AV  22296.00002315 -.00036525  00000-0 -28503-2 0  9998","SEMIMAJOR_AXIS":"6941.007","ARG_OF_PERICENTER":"43.8222","LAUNCH_DATE":"2022-08-12","INCLINATION":"97.6576","OBJECT_ID":"2022-099AV","MEAN_MOTION_DOT":"-0.00036525","MEAN_ELEMENT_THEORY":"SGP4","MEAN_MOTION_DDOT":"0.0000000000000","APOAPSIS":"564.460","CENTER_NAME":"EARTH","REF_FRAME":"TEME","NORAD_CAT_ID":"53508","FILE":"3629782","PERIAPSIS":"561.283","OBJECT_NAME":"STARLINK-4443","MEAN_MOTION":"15.01305515","MEAN_ANOMALY":"318.2084","DECAY_DATE":null,"SITE":"AFWTR","OBJECT_TYPE":"PAYLOAD","GP_ID":"215903529","COUNTRY_CODE":"US","REV_AT_EPOCH":"1113","RCS_SIZE":"LARGE","EPOCH":"2022-10-23T00:00:02.000160","TLE_LINE2":"2 53508  97.6576  55.4791 0002288  43.8222 318.2084 15.01305515 11133","BSTAR":"-0.00285030000000","ECCENTRICITY":"0.00022880","CLASSIFICATION_TYPE":"U","RA_OF_ASC_NODE":"55.4791","TIME_SYSTEM":"UTC"},{"RA_OF_ASC_NODE":"55.4756","TIME_SYSTEM":"UTC","CLASSIFICATION_TYPE":"U","ECCENTRICITY":"0.00019560","BSTAR":"-0.00244330000000","TLE_LINE2":"2 53509  97.6566  55.4756 0001956  47.5277 353.1740 15.01300803 11138","EPOCH":"2022-10-23T00:00:02.000160","RCS_SIZE":"LARGE","REV_AT_EPOCH":"1113","GP_ID":"215903675","COUNTRY_CODE":"US","DECAY_DATE":null,"SITE":"AFWTR","OBJECT_TYPE":"PAYLOAD","MEAN_MOTION":"15.01300803","MEAN_ANOMALY":"353.1740","OBJECT_NAME":"STARLINK-4402","PERIAPSIS":"561.528","FILE":"3629783","NORAD_CAT_ID":"53509","REF_FRAME":"TEME","CENTER_NAME":"EARTH","APOAPSIS":"564.244","MEAN_MOTION_DDOT":"0.0000000000000","MEAN_ELEMENT_THEORY":"SGP4","OBJECT_ID":"2022-099AW","MEAN_MOTION_DOT":"-0.00031337","INCLINATION":"97.6566","LAUNCH_DATE":"2022-08-12","ARG_OF_PERICENTER":"47.5277","SEMIMAJOR_AXIS":"6941.021","TLE_LINE1":"1 53509U 22099AW  22296.00002315 -.00031337  00000-0 -24433-2 0  9993","ELEMENT_SET_NO":"999","PERIOD":"95.917","EPHEMERIS_TYPE":"0"},{"CENTER_NAME":"EARTH","APOAPSIS":"564.512","REF_FRAME":"TEME","NORAD_CAT_ID":"53510","FILE":"3629783","OBJECT_NAME":"STARLINK-4441","PERIAPSIS":"561.390","MEAN_MOTION":"15.01279875","MEAN_ANOMALY":"341.4526","OBJECT_TYPE":"PAYLOAD","DECAY_DATE":null,"SITE":"AFWTR","GP_ID":"215903546","COUNTRY_CODE":"US","RCS_SIZE":"LARGE","REV_AT_EPOCH":"1113","EPOCH":"2022-10-23T00:00:02.000160","TLE_LINE2":"2 53510  97.6573  55.4764 0002249  50.6899 341.4526 15.01279875 11134","BSTAR":"-0.00265540000000","ECCENTRICITY":"0.00022490","CLASSIFICATION_TYPE":"U","TIME_SYSTEM":"UTC","RA_OF_ASC_NODE":"55.4764","EPHEMERIS_TYPE":"0","PERIOD":"95.918","ELEMENT_SET_NO":"999","TLE_LINE1":"1 53510U 22099AX  22296.00002315 -.00034021  00000-0 -26554-2 0  9994","SEMIMAJOR_AXIS":"6941.086","ARG_OF_PERICENTER":"50.6899","LAUNCH_DATE":"2022-08-12","INCLINATION":"97.6573","MEAN_MOTION_DOT":"-0.00034021","OBJECT_ID":"2022-099AX","MEAN_ELEMENT_THEORY":"SGP4","MEAN_MOTION_DDOT":"0.0000000000000"},{"REV_AT_EPOCH":"130","RCS_SIZE":"LARGE","EPOCH":"2022-10-22T22:00:00.999936","OBJECT_TYPE":"PAYLOAD","DECAY_DATE":null,"SITE":"AFETR","GP_ID":"215928358","COUNTRY_CODE":"US","ECCENTRICITY":"0.00015080","CLASSIFICATION_TYPE":"U","RA_OF_ASC_NODE":"212.7400","TIME_SYSTEM":"UTC","TLE_LINE2":"2 53527  53.2140 212.7400 0001508  68.5594 262.4121 15.08850023  1300","BSTAR":"-0.00041957000000","CENTER_NAME":"EARTH","APOAPSIS":"540.758","NORAD_CAT_ID":"53527","FILE":"3629797","PERIAPSIS":"538.672","OBJECT_NAME":"STARLINK-4511","MEAN_ANOMALY":"262.4121","MEAN_MOTION":"15.08850023","REF_FRAME":"TEME","MEAN_ELEMENT_THEORY":"SGP4","OBJECT_ID":"2022-101A","MEAN_MOTION_DOT":"-0.00006961","MEAN_MOTION_DDOT":"0.0000000000000","ELEMENT_SET_NO":"999","TLE_LINE1":"1 53527U 22101A   22295.91667824 -.00006961  00000-0 -41957-3 0  9994","SEMIMAJOR_AXIS":"6917.850","EPHEMERIS_TYPE":"0","PERIOD":"95.437","ARG_OF_PERICENTER":"68.5594","LAUNCH_DATE":"2022-08-19","INCLINATION":"53.2140"},{"EPHEMERIS_TYPE":"0","PERIOD":"95.437","ELEMENT_SET_NO":"999","TLE_LINE1":"1 53528U 22101B   22295.91667824 -.00006897  00000-0 -41549-3 0  9990","SEMIMAJOR_AXIS":"6917.847","ARG_OF_PERICENTER":"55.8281","LAUNCH_DATE":"2022-08-19","INCLINATION":"53.2148","MEAN_MOTION_DOT":"-0.00006897","OBJECT_ID":"2022-101B","MEAN_ELEMENT_THEORY":"SGP4","MEAN_MOTION_DDOT":"0.0000000000000","APOAPSIS":"540.946","CENTER_NAME":"EARTH","REF_FRAME":"TEME","NORAD_CAT_ID":"53528","FILE":"3629797","OBJECT_NAME":"STARLINK-4503","PERIAPSIS":"538.479","MEAN_ANOMALY":"255.1279","MEAN_MOTION":"15.08850814","OBJECT_TYPE":"PAYLOAD","DECAY_DATE":null,"SITE":"AFETR","COUNTRY_CODE":"US","GP_ID":"215929337","REV_AT_EPOCH":"130","RCS_SIZE":"LARGE","EPOCH":"2022-10-22T22:00:00.999936","TLE_LINE2":"2 53528  53.2148 212.7420 0001783  55.8281 255.1279 15.08850814  1309","BSTAR":"-0.00041549000000","ECCENTRICITY":"0.00017830","CLASSIFICATION_TYPE":"U","TIME_SYSTEM":"UTC","RA_OF_ASC_NODE":"212.7420"},{"INCLINATION":"53.2138","ARG_OF_PERICENTER":"62.8501","LAUNCH_DATE":"2022-08-19","SEMIMAJOR_AXIS":"6917.762","TLE_LINE1":"1 53529U 22101C   22295.91667824 -.00052597  00000-0 -33074-2 0  9992","ELEMENT_SET_NO":"999","PERIOD":"95.435","EPHEMERIS_TYPE":"0","MEAN_MOTION_DDOT":"0.0000000000000","MEAN_ELEMENT_THEORY":"SGP4","MEAN_MOTION_DOT":"-0.00052597","OBJECT_ID":"2022-101C","OBJECT_NAME":"STARLINK-4478","PERIAPSIS":"538.522","MEAN_ANOMALY":"288.1063","MEAN_MOTION":"15.08878790","NORAD_CAT_ID":"53529","FILE":"3629797","REF_FRAME":"TEME","CENTER_NAME":"EARTH","APOAPSIS":"540.732","TIME_SYSTEM":"UTC","RA_OF_ASC_NODE":"212.7396","ECCENTRICITY":"0.00015970","CLASSIFICATION_TYPE":"U","TLE_LINE2":"2 53529  53.2138 212.7396 0001597  62.8501 288.1063 15.08878790  1307","BSTAR":"-0.00330740000000","EPOCH":"2022-10-22T22:00:00.999936","RCS_SIZE":"LARGE","REV_AT_EPOCH":"130","COUNTRY_CODE":"US","GP_ID":"215929174","DECAY_DATE":null,"SITE":"AFETR","OBJECT_TYPE":"PAYLOAD"},{"GP_ID":"215928195","COUNTRY_CODE":"US","OBJECT_TYPE":"PAYLOAD","DECAY_DATE":null,"SITE":"AFETR","EPOCH":"2022-10-22T22:00:00.999936","RCS_SIZE":"LARGE","REV_AT_EPOCH":"130","BSTAR":"-0.00058730000000","TLE_LINE2":"2 53530  53.2153 212.7427 0001676  62.3750 323.3761 15.08863807  1300","RA_OF_ASC_NODE":"212.7427","TIME_SYSTEM":"UTC","CLASSIFICATION_TYPE":"U","ECCENTRICITY":"0.00016760","CENTER_NAME":"EARTH","APOAPSIS":"540.832","REF_FRAME":"TEME","MEAN_MOTION":"15.08863807","MEAN_ANOMALY":"323.3761","OBJECT_NAME":"STARLINK-4482","PERIAPSIS":"538.513","FILE":"3629797","NORAD_CAT_ID":"53530","OBJECT_ID":"2022-101D","MEAN_MOTION_DOT":"-0.00009629","MEAN_ELEMENT_THEORY":"SGP4","MEAN_MOTION_DDOT":"0.0000000000000","PERIOD":"95.436","EPHEMERIS_TYPE":"0","SEMIMAJOR_AXIS":"6917.808","TLE_LINE1":"1 53530U 22101D   22295.91667824 -.00009629  00000-0 -58730-3 0  9999","ELEMENT_SET_NO":"999","INCLINATION":"53.2153","LAUNCH_DATE":"2022-08-19","ARG_OF_PERICENTER":"62.3750"},{"APOAPSIS":"540.892","CENTER_NAME":"EARTH","REF_FRAME":"TEME","OBJECT_NAME":"STARLINK-4487","PERIAPSIS":"538.497","MEAN_ANOMALY":"315.3757","MEAN_MOTION":"15.08856676","NORAD_CAT_ID":"53531","FILE":"3629797","COUNTRY_CODE":"US","GP_ID":"215928777","DECAY_DATE":null,"SITE":"AFETR","OBJECT_TYPE":"PAYLOAD","EPOCH":"2022-10-22T22:00:00.999936","RCS_SIZE":"LARGE","REV_AT_EPOCH":"130","TLE_LINE2":"2 53531  53.2155 212.7432 0001731  55.5921 315.3757 15.08856676  1307","BSTAR":"-0.00053383000000","TIME_SYSTEM":"UTC","RA_OF_ASC_NODE":"212.7432","ECCENTRICITY":"0.00017310","CLASSIFICATION_TYPE":"U","PERIOD":"95.436","EPHEMERIS_TYPE":"0","SEMIMAJOR_AXIS":"6917.829","TLE_LINE1":"1 53531U 22101E   22295.91667824 -.00008778  00000-0 -53383-3 0  9993","ELEMENT_SET_NO":"999","INCLINATION":"53.2155","ARG_OF_PERICENTER":"55.5921","LAUNCH_DATE":"2022-08-19","MEAN_MOTION_DOT":"-0.00008778","OBJECT_ID":"2022-101E","MEAN_ELEMENT_THEORY":"SGP4","MEAN_MOTION_DDOT":"0.0000000000000"},{"MEAN_MOTION":"15.08849704","MEAN_ANOMALY":"126.5461","PERIAPSIS":"538.563","OBJECT_NAME":"STARLINK-4483","FILE":"3629797","NORAD_CAT_ID":"53532","REF_FRAME":"TEME","APOAPSIS":"540.868","CENTER_NAME":"EARTH","TIME_SYSTEM":"UTC","RA_OF_ASC_NODE":"212.7311","CLASSIFICATION_TYPE":"U","ECCENTRICITY":"0.00016660","BSTAR":"-0.00054889000000","TLE_LINE2":"2 53532  53.2190 212.7311 0001666  64.4089 126.5461 15.08849704  1302","EPOCH":"2022-10-22T22:00:00.999936","REV_AT_EPOCH":"130","RCS_SIZE":"LARGE","COUNTRY_CODE":"US","GP_ID":"215929104","DECAY_DATE":null,"SITE":"AFETR","OBJECT_TYPE":"PAYLOAD","INCLINATION":"53.2190","LAUNCH_DATE":"2022-08-19","ARG_OF_PERICENTER":"64.4089","SEMIMAJOR_AXIS":"6917.851","ELEMENT_SET_NO":"999","TLE_LINE1":"1 53532U 22101F   22295.91667824 -.00009015  00000-0 -54889-3 0  9991","PERIOD":"95.437","EPHEMERIS_TYPE":"0","MEAN_MOTION_DDOT":"0.0000000000000","MEAN_ELEMENT_THEORY":"SGP4","MEAN_MOTION_DOT":"-0.00009015","OBJECT_ID":"2022-101F"}];
